Name,Address,City,Phone Number,Web
Chiropractic & Wellness Center Of New Haven,"59 Elm St #100, New Haven, Ct 06510, United States",New Haven,+1 203-909-6173,http://www.chiropracticnewhaven.com/
Sovita Chiropractic Center,"24 Lewis St, Hartford, Ct 06103, United States",Hartford,+1 959-235-4566,https://sovitachiro.com/
Chiropractic Associates Of Bridgeport Llc,"4444 Main St, Bridgeport, Ct 06606, United States",Bridgeport,+1 203-374-4393,https://www.chirobpt.com/
Advanced Chiropractic & Wellness Llc,"1150 Summer St 1st Floor, Stamford, Ct 06905, United States",Stamford,+1 203-316-8477,http://www.drbrianyomtov.com/
Southern Connecticut Chiropractic,"412 Roosevelt Dr, Derby, Ct 06418, United States",Derby,+1 203-736-1762,https://www.southernctchiro.com/
Shoreline Family Chiropractic - Dr. Matthew Paterna,"314 Merwin Ave, Milford, Ct 06460, United States",Milford,+1 203-932-4476,https://www.drpaterna.com/
"Silver Chiropractic, Llc","1220 Post Rd, Fairfield, Ct 06824, United States",Fairfield,+1 203-259-3000,https://www.drpaulsilverchiropractic.com/
"On Point Chiropractic, Sports Medicine & Integrated Wellness","88 Ryders Ln #101, Stratford, Ct 06614, United States",Stratford,+1 203-375-1101,http://www.onpointchiro.com/
Modern Chiropractic: Smith Shane Dc,"2301 Berlin Tpke, Newington, Ct 06111, United States",Newington,+1 860-215-4515,http://www.mchiropractic.com/?utm_source=gmb_auth
Weinstein Chiropractic & Wellness Center,"2228 Black Rock Tpke #208, Fairfield, Ct 06825, United States",Fairfield,+1 203-450-4889,http://www.drbradleyweinstein.com/
Stratford Chiropractic Spine & Injury Center,"2505 Main St, Stratford, Ct 06615, United States",Stratford,+1 203-386-9100,https://drpesale.com/
"Stamford Chiropractic & Rehab Center: Ian Keyser, Dc","970 Summer St 1st Floor, Stamford, Ct 06905, United States",Stamford,+1 203-276-1293,http://stamfordchiro.com/
Bristol Chiropractic & Acupuncture,"162 South St, Bristol, Ct 06010, United States",Bristol,+1 860-585-9797,http://www.bristol-chiropractic.com/
Connecticut Back & Wellness Chiropractic,"755 Main St Ste 1, Monroe, Ct 06468, United States",Monroe,+1 203-261-0064,http://ctbackandwellnesschiro.com/
Elite Chiropractic,"300 Alumni Rd, Newington, Ct 06111, United States",Newington,+1 860-578-2423,http://elitechiropracticct.com/
Oxford Chiropractic Health,"306 Riggs St, Oxford, Ct 06478, United States",Oxford,+1 203-463-8118,http://oxfordchiropractichealth.com/
Precision Chiropractic & Nutrition Center Disc Centers Of America Wallingford,"857 N Main Street Ext Suite 4, Wallingford, Ct 06492, United States",Wallingford,+1 203-284-9200,https://www.wellnessatprecision.com/
Connecticut Spine & Rehab,"91 Dixwell Ave, New Haven, Ct 06511, United States",New Haven,+1 203-691-5484,http://www.ctspinerehab.com/
"Healing Hands Chiropractic, Llc","100 Center St, Wallingford, Ct 06492, United States",Wallingford,+1 203-626-9994,http://www.healinghandsdc.com/
Slovin Chiropractic Center,"205 Main St, Norwalk, Ct 06851, United States",Norwalk,+1 203-840-0000,http://www.drslovin.com/
Sclafani Chiropractic Life Center,"188 Main St, Norwalk, Ct 06851, United States",Norwalk,+1 203-831-0006,https://sclafanichiropract.wixsite.com/sclafani-chiroprac-1
Southport Chiropractic,"1995 Post Rd, Fairfield, Ct 06824, United States",Fairfield,+1 203-259-1555,https://chiroct.com/
Dembski Chiropractic & Rehabilitation,"760 Main St S Ste E, Southbury, Ct 06488, United States",Southbury,+1 203-267-3880,http://www.dembskichiropractic.com/
"Westside Chiropractic, Llc","557 Prospect Ave, Hartford, Ct 06105, United States",Hartford,+1 860-523-5833,http://www.westsidechiropractors.com/
"Upper Cervical Corsello Clinic Chiropractic | Stratford | Atlas Orthogonal, Neck & Back Pain, Migraine Headaches & More","2021 Main St, Stratford, Ct 06615, United States",Stratford,+1 203-381-1800,https://www.corselloclinic.com/?utm_souce=GMB
"Keystone Chiropractic, Llc","2660 State St, Hamden, Ct 06517, United States",Hamden,+1 203-675-1644,http://www.keystonechiroct.com/
Chiropractic Center Of Newtown,"54 S Main St, Newtown, Ct 06470, United States",Newtown,+1 203-426-2490,http://newtownchiropractic.com/
"Associates In Family Chiropractic & Natural Health Care, P.c.","156 East Ave, Norwalk, Ct 06851, United States",Norwalk,+1 203-838-1555,https://www.ctchiropractic.com/
Bennett Family Chiropractic Llc,"950 Yale Ave Unit 29, Wallingford, Ct 06492, United States",Wallingford,+1 203-793-7147,http://www.bennettfamilychiro.com/
Judson Family Chiropractic,"133 Louis St, Newington, Ct 06111, United States",Newington,+1 860-667-3636,http://www.judsonchiropractic.com/
Dr. John Cianciolo Chiropractic Physician,"500 Orange St, New Haven, Ct 06511, United States",New Haven,+1 203-495-6800,http://www.drcianciolo.com/
Back To Health Chiropractic & Acupuncture,"3 Pomperaug Office Pk Suite 103, Southbury, Ct 06488, United States",Southbury,+1 203-263-0411,http://www.backtohealthsouthbury.com/
Back & Neck Care Of Connecticut,"346 Main Ave, Norwalk, Ct 06851, United States",Norwalk,+1 203-847-7999,https://www.chiropractornorwalkct.com/
Central Connecticut Chiropractic: Dr. Luigi Dirubba,"391 Highland Ave #1, Cheshire, Ct 06410, United States",Cheshire,+1 203-272-3239,https://www.cheshirechiropractic.com/
Specific Chiropractic,"100 Lansdale Ave Unit M, Milford, Ct 06460, United States",Milford,+1 203-429-4929,http://www.specificchiroct.com/
Chiropractic & Wellness Center Of Stamford,"90 Morgan St Ste 202, Stamford, Ct 06905, United States",Stamford,+1 203-604-0202,http://www.thectchiro.com/
Ct Junction Brain & Spine,"93 Meriden Rd, Waterbury, Ct 06705, United States",Waterbury,+1 203-528-4432,http://www.ctjunction.com/
Connecticut Spine & Rehab,"3851 Main St, Bridgeport, Ct 06606, United States",Bridgeport,+1 203-333-2377,https://www.ctspinerehab.com/
Ct Spine Center,"1200 High Ridge Rd, Stamford, Ct 06905, United States",Stamford,+1 203-967-8888,https://www.ctspinecenter.com/
Cofrancesco Chiropractic & Healing Arts,"260 Amity Rd, Woodbridge, Ct 06525, United States",Woodbridge,+1 203-397-7767,http://www.cofrancescochiropractic.com/
Chiropractic Health Center Of Bristol,"22 Pine St # 216, Bristol, Ct 06010, United States",Bristol,+1 860-583-4346,https://www.backdoc.com/
Ct Junction Brain & Spine,"1565 Watertown Ave, Waterbury, Ct 06708, United States",Waterbury,+1 203-528-4432,https://ctjunction.com/
Ck Performance And Chiropractic,"100 Beard Sawmill Rd Suite 115, Shelton, Ct 06484, United States",Shelton,+1 203-951-9115,http://ckperformancechiropractic.com/
"Advanced Spinal Care, Llc","197 W Main St, Meriden, Ct 06451, United States",Meriden,+1 203-237-6325,http://wwe.fixmybacktoday.com/
Advanced Chiropractic & Rehab,"4 Corporate Dr #285, Shelton, Ct 06484, United States",Shelton,+1 203-929-5500,http://www.sheltonchiropractor.com/
Charlestin Chiropractic Group,"1825 Barnum Ave, Stratford, Ct 06614, United States",Stratford,+1 475-522-4476,http://www.charlestinchiropractic.com/
Southbury Sports And Spine Chiropractic,"220 Main St S, Southbury, Ct 06488, United States",Southbury,+1 203-586-5000,https://southburychiropractic.com/
Central Connecticut Chiropractic,"391 Highland Ave, Cheshire, Ct 06410, United States",Cheshire,+1 203-272-3239,http://www.cheshirechiropractic.com/
Kelly Chiropractic & Rehab Llc,"366 S Main St, Cheshire, Ct 06410, United States",Cheshire,+1 203-271-1316,http://www.kellythechiro.com/
Norwalk Chiropractic,"83 East Ave #313, Norwalk, Ct 06851, United States",Norwalk,+1 203-838-9795,http://www.norwalkchiropractic.com/
Norwalk Sports & Spine,"488 Main Ave 2nd Floor, Norwalk, Ct 06851, United States",Norwalk,+1 203-842-8502,http://www.norwalksportsandspine.com/
"Back To Health Chiropractic Of Stratford, P.c.","3355 Main St, Stratford, Ct 06614, United States",Stratford,+1 203-381-9703,https://www.dryoobacktohealth.com/
"Docs Chiropractic Center, Dr. James Miller","279 Chase Ave, Waterbury, Ct 06704, United States",Waterbury,+1 203-437-8278,https://docsmedicalgroup.com/docschiropractic/
Hamden Chiropractic,"2666 Dixwell Ave, Hamden, Ct 06518, United States",Hamden,+1 203-248-7200,http://www.hamden-chiropractic.com/
Albino Chiropractic Health & Wellness Center,"1052 Chase Pkwy, Waterbury, Ct 06708, United States",Waterbury,+1 203-574-4400,https://betterhealthct.com/
New Haven Chiropractic Group,"951 State St, New Haven, Ct 06511, United States",New Haven,+1 203-787-1331,https://newhavenchiro.com/
The Healing Touch Family Chiropractic,"292 Elm St Ste #4, Monroe, Ct 06468, United States",Monroe,+1 203-590-3337,http://thehealingtouchchiro.com/
"Chiropractic Health Care Center Of Hamden, Llc","2821 Old Dixwell Ave, Hamden, Ct 06518, United States",Hamden,+1 203-288-2821,https://drbryanbarry.com/
Energetic Spine Chiropractic,"1271 S Broad St, Wallingford, Ct 06492, United States",Wallingford,+1 203-626-9252,http://www.energeticspinechiro.com/
Meriden Chiropractic Llc,"693 Broad St, Meriden, Ct 06450, United States",Meriden,+1 203-440-9686,http://www.meridenchiro.com/
"Konecny Chiropractic Centers, Llc","2140 Park Ave, Bridgeport, Ct 06604, United States",Bridgeport,+1 203-334-4448,https://www.chirobridgeport.com/
Stratford Acupuncture & Nutritional Wellness Center,"1000 Bridgeport Ave Ste 508, Shelton, Ct 06484, United States",Shelton,+1 203-257-7550,https://www.stratfordacupuncture.com/
Ct Acupuncture Center,"400 Post Rd, Fairfield, Ct 06824, United States",Fairfield,+1 203-259-1660,http://www.ctacupuncture.com/
"Fairfield Acupuncture Center: Christopher Maslowski, Dacm","61 Sherman St Lower Level, Fairfield, Ct 06824, United States",Fairfield,+1 475-225-4505,https://www.fairfieldacu.com/
Natural Flow Medical Acupuncture Llc,"204 Cherry St, Milford, Ct 06460, United States",Milford,+1 203-701-9806,http://naturalflowmedacu.com/
"Greenwich Acupuncture Clinic, Llc","270 Greenwich Ave Suite 3, Greenwich, Ct 06830, United States",Greenwich,+1 203-441-1228,https://www.greenwichacupunctureclinic.com/?utm_source=google&utm_medium=wix_google_business_profile&utm_campaign=784426863627108809
Acupuncture Healing Ct,"9 Mott Ave Suite 206b, Norwalk, Ct 06850, United States",Norwalk,+1 203-216-2548,http://wwe.acupuncturehealingct.com/
Xilin Feng Jordan Acupuncture And Oriental Medicine,"2295 State St # B, Hamden, Ct 06517, United States",Hamden,+1 203-605-2094,http://www.acutherapy.us/
Acupuncture Solutions,"26 Trumbull St, New Haven, Ct 06511, United States",New Haven,+1 978-210-3177,http://www.corywalsh.com/
Upright Acupuncture Llc,"2440 Whitney Ave Suite #209, Hamden, Ct 06518, United States",Hamden,+1 203-390-5538,http://www.uprightacupuncturect.com/
Connecticut's Best Acupuncture,"93 Market Square, Newington, Ct 06111, United States",Newington,+1 860-578-9865,http://www.connecticutsbestacupuncture.com/
Scofield Acupuncture,"22 Reef Rd 2nd Floor, Fairfield, Ct 06824, United States",Fairfield,+1 646-385-0005,https://scofieldacupuncture.com/
Alexandra Lin’s Acupuncture Center,"3 Pomperaug Office Pk Suite 104, Southbury, Ct 06488, United States",Southbury,+1 203-586-1838,http://www.alexandralinsacupuncture.com/
Kangyan's Health & Beauty Acupuncture,"1177 High Ridge Rd Suite 226-230, Stamford, Ct 06905, United States",Stamford,+1 203-918-4970,https://kayns40.wixsite.com/website
Oriental Healing Art Institute,"100 Pine St, Bristol, Ct 06010, United States",Bristol,+1 860-582-2389,http://www.drgaolac.com/
Soleil Acupuncture And Naturopathic Wellness,"2661 Whitney Ave, Hamden, Ct 06518, United States",Hamden,+1 475-253-5902,http://www.soleilholistic.com/
Acublend,"1200 High Ridge Rd, Stamford, Ct 06905, United States",Stamford,+1 203-987-6585,https://www.acublend.com/
Phoenix Rising Acupuncture Llc,"25 Depot Hill Rd Building #2, Suite 102, Southbury, Ct 06488, United States",Southbury,+1 203-598-4351,http://www.acupuncturect.com/
Dr. Faith Seligson,"75 New Haven Ave, Milford, Ct 06460, United States",Milford,+1 203-645-2691,http://www.drfaithseligson.com/
Acupuncture Tree Of Life,"601 Farmington Ave, New Britain, Ct 06053, United States",New Britain,+1 860-573-8047,http://acupuncturetreeoflife.com/
Whole Health Natural Family Medicine,"2838 Old Dixwell Ave, Hamden, Ct 06518, United States",Hamden,+1 203-288-8283,http://www.wholehealthct.com/
University Of Bridgeport Acupuncture Clinic,"60 Lafayette St, Bridgeport, Ct 06604, United States",Bridgeport,+1 203-576-4349,https://www.bridgeport.edu/academics/ub-clinics/acupuncture
Innovative Body Healing,"674 Prospect Ave, Hartford, Ct 06105, United States",Hartford,+1 860-999-6099,http://www.innovativebodyhealing.com/
Chinese Healing Arts Center,"73 Great Plain Rd # 3, Danbury, Ct 06811, United States",Danbury,+1 845-338-6045,http://qihealer.com/
Lydia Dixon Acupuncture,"Erector Square, 319 Peck St B5, New Haven, Ct 06513, United States",New Haven,+1 203-687-8106,http://lydiadixonacupuncture.com/
Dr. Zhen Gao L.ac. Licensed & Diploma Acupuncturist,"92 Pine St, Bristol, Ct 06010, United States",Bristol,+1 860-582-2389,http://www.drgaolac.com/
Susan Knight Acupuncture,"100 Melrose Ave # 107, Greenwich, Ct 06830, United States",Greenwich,+1 203-274-1126,https://www.susanknightacu.com/
University Of Bridgeport Acupuncture Institute,"Warner Hall, Lafayette St, Bridgeport, Ct 06604, United States",Bridgeport,+1 203-576-4552,https://www.bridgeport.edu/academics/schools-colleges/acupuncture-institute
Neck & Back Pain Specialist,"133 Scovill St #207, Waterbury, Ct 06706, United States",Waterbury,+1 860-274-9641,http://www.drzilahy.com/
New England Institute For Neurology And Headache,"30 Buxton Farm Rd # 230, Stamford, Ct 06905, United States",Stamford,+1 203-914-1900,http://www.neinh.com/
Yale Medicine Neurology,"75 Kings Hwy Cutoff, Fairfield, Ct 06824, United States",Fairfield,+1 203-333-1133,https://www.yalemedicine.org/departments/neurology
Hartford Neurology Llc,"85 Seymour St, Hartford, Ct 06106, United States",Hartford,+1 860-522-4429,http://www.hartfordneurology.com/
"David Tkeshelashvili, Md","2660 Main St #219, Bridgeport, Ct 06606, United States",Bridgeport,+1 203-332-1949,https://hartfordhealthcaremedicalgroup.org/DavidTkeshelashvili
Trinity Health Of New England Medical Group - Neurology,"1000 Asylum Ave # 2112, Hartford, Ct 06105, United States",Hartford,+1 860-522-3711,https://www.trinityhealthofne.org/location/trinity-health-of-new-england-medical-group-neurology-1
Neurological Specialists,"99 Hawley Ln, Stratford, Ct 06614, United States",Stratford,+1 203-377-5988,https://neurologyct.com/
Neurological Specialists Pc,"111 Beach Rd, Fairfield, Ct 06824, United States",Fairfield,+1 203-254-0284,https://www.neurologyct.com/
Mandell Center For Comprehensive Multiple Sclerosis Care And Neuroscience Research,"490 Blue Hills Ave, Hartford, Ct 06112, United States",Hartford,+1 860-714-2149,https://www.trinityhealthofne.org/find-a-service-or-specialty/multiple-sclerosis/
Yale University Neurology,"15 York St Lci702, New Haven, Ct 06510, United States",New Haven,+1 203-688-4242,https://medicine.yale.edu/neurology/
"Barry Gordon, Do","455 Lewis Ave Suite 221, Meriden, Ct 06451, United States",Meriden,+1 203-694-8550,https://hartfordhealthcaremedicalgroup.org/BarryJGordon
The Ayer Neuroscience Institute,"455 Lewis Ave Suite 221, Meriden, Ct 06451, United States",Meriden,+1 203-694-8550,https://hartfordhealthcaremedicalgroup.org/locations/specialty-care/meriden/455-lewis-ave-suite-221
"Neurology And Headache Center Of Greenwich: Jennifer Werely, Md & Matthew Mcconnell, Md","49 Lake Ave Lower Level 3, Greenwich, Ct 06830, United States",Greenwich,+1 203-900-4226,http://www.nhcgreenwich.com/
Ayer Neuroscience Institute Seizure And Epilepsy Clinic At Hartford Hospital,"85 Seymour St #815, Hartford, Ct 06106, United States",Hartford,+1 860-972-3600,https://hartfordhealthcare.org/services/epilepsy-center
"Leon Meytin, Md","2660 Main St #219, Bridgeport, Ct 06606, United States",Bridgeport,+1 860-870-6385,https://hartfordhealthcaremedicalgroup.org/LeonMeytin
Yale Medicine Neurology,"800 Howard Ave, New Haven, Ct 06519, United States",New Haven,+1 203-785-4085,https://www.yalemedicine.org/departments/neurology
Hartford Healthcare Medical Group Specialty Care,"205 Sub Way #200, Milford, Ct 06461, United States",Milford,+1 203-226-2491,https://hartfordhealthcaremedicalgroup.org/locations/specialty-care/milford/205-sub-way
Mandell Ms Center-waterbury,"Rehabilitation Department, 56 Franklin St, Waterbury, Ct 06706, United States",Waterbury,+1 203-709-6500,https://www.trinityhealthofne.org/location/mandell-ms-center-waterbury
Institute For Neurodegenerative Disorders,"55 Church St 7th Floor, New Haven, Ct 06510, United States",New Haven,+1 203-590-5600,http://www.indd.org/
Donald L. Price,"29 Hospital Plaza Suite 602, Stamford, Ct 06902, United States",Stamford,+1 203-276-4464,https://www.stamfordhealth.org/find-a-doctor/donald-price
Ct Neurodevelopmental Services,"134 Grandview Ave Ste 208, Waterbury, Ct 06708, United States",Waterbury,+1 203-755-3279,http://ctchildneurology.com/
Neurology Associates Of Norwalk,"761 Main Ave Ste 201, Norwalk, Ct 06851, United States",Norwalk,+1 203-853-5000,https://findcare.nuvancehealth.org/specialty/Neurology/near/Norwalk%2C%20CT
"Dr. Kathleen B. Mullin, Md","30 Buxton Farm Rd, Stamford, Ct 06905, United States",Stamford,+1 203-914-1900,https://www.neinh.com/kathleen-mullin-m-d/
The Ayer Neuroscience Institute Seizure And Epilepsy Clinic,"2660 Main St #219, Bridgeport, Ct 06606, United States",Bridgeport,+1 203-332-1949,https://hartfordhealthcare.org/services/neurosciences/service-locations/st-vincents-medical-group
Stamford Hospital Neurology,"30 Buxton Farm Rd # 230, Stamford, Ct 06905, United States",Stamford,+1 203-968-1799,http://www.stamfordhealthintegratedpractices.com/
"Dario Zagar, Md","75 Kings Hwy Cutoff, Fairfield, Ct 06824, United States",Fairfield,+1 203-333-3937,https://www.yalemedicine.org/specialists/dario-zagar
Stamford Health Diagnostic Neurology Eeg Lab,"Basement Of Whittingham Pavilion, One Hospital Plaza, Stamford, Ct 06902, United States",Stamford,+1 203-276-7543,https://www.stamfordhealth.org/locations/ct/stamford/stamford-health-diagnostic-neurology-eeg-lab/11142677/?utm_source=google&utm_medium=organic&utm_campaign=Yext
Brain Balance Center Of Norwalk,"15 Cross St, Norwalk, Ct 06851, United States",Norwalk,+1 203-847-3000,https://www.brainbalancecenters.com/locations/connecticut/norwalk
David & Rhoda Chase Family Movement Disorders Center,"280 S Main St #102, Cheshire, Ct 06410, United States",Cheshire,+1 860-870-6385,https://hartfordhealthcare.org/services/movement-disorders-center/service-locations
"Dr. Sanath Nallainathan, Md","2590 Main St, Stratford, Ct 06615, United States",Stratford,+1 203-377-5988,http://www.neurologyct.com/
"Joel Bauman, Md","435 Lewis Ave #103, Meriden, Ct 06451, United States",Meriden,+1 860-696-2290,https://hartfordhealthcaremedicalgroup.org/JoelBauman
Hartford Healthcare Medical Group,"100 Retreat Ave Ste 705, Hartford, Ct 06106, United States",Hartford,+1 860-278-0070,https://hartfordhealthcaremedicalgroup.org/locations/specialty-care/hartford/100-retreat-avenue-suite-705
Eric Kung,"1 Blachley Rd 2nd Fl, Stamford, Ct 06902, United States",Stamford,+1 203-276-4464,https://www.stamfordhealth.org/find-a-doctor/eric-kung?utm_source=google&utm_medium=organic&utm_campaign=Yext
Neurohydrate,"4637 Main St #5, Bridgeport, Ct 06606, United States",Bridgeport,+1 203-799-7900,https://neurohydrate.com/
Northeast Neuropsychology,"609 W Johnson Ave Suite #104, Cheshire, Ct 06410, United States",Cheshire,+1 203-272-6007,http://www.neneuropsych.com/
Neuro Oncology Center,"333 Cedar St, New Haven, Ct 06510, United States",New Haven,+1 203-785-2791,http://neuro-oncology.oxfordjournals.org/
Yale Lombroso Lab (laboratory For The Study Of Neuroscience And Molecular Neurobiology),"Yale Child Study Center, 230 S Frontage Rd, New Haven, Ct 06519, United States",New Haven,+1 203-785-5880,https://medicine.yale.edu/lab/lombroso/
Yale Mishra Lab,"Wing Neurology, 100 York St Suite 1n, Room 123, New Haven, Ct 06511, United States",New Haven,+1 785-785-5867,https://medicine.yale.edu/lab/mishra/
Yale School Of Medicine: Neuropsychology Service,"300 George, 300 George St #901, New Haven, Ct 06511, United States",New Haven,,https://medicine.yale.edu/neurology/divisions/neuropsychology/
Comprehensive Neuropsychological Services,"1095 S Main St, Cheshire, Ct 06410, United States",Cheshire,+1 203-271-3809,http://clinicalneuropsych.com/
Hartford Hospital,"80 Seymour St, Hartford, Ct 06106, United States",Hartford,+1 860-545-5000,https://hartfordhospital.org/
The Hospital Of Central Connecticut- New Britain General Campus,"100 Grand St 1st Flr, New Britain, Ct 06052, United States",New Britain,+1 860-224-5011,https://thocc.org/
"Dr. Jason J. Sico, Md","920 Campbell Ave, West Haven, Ct 06516, United States",West Haven,+1 203-932-5711,http://www.connecticut.va.gov/
Xianyuan Song,"80 Seymour St, Hartford, Ct 06102, United States",Hartford,+1 860-545-2249,https://www.hartfordhospital.org/XianyuanSong
Joint Effort Chiropractic,"4 Westchester Park Dr #230, White Plains, Ny 10604, United States",White Plains,+1 914-368-7668,https://www.jointeffortchiro.com/?utm_source=gmb_auth
Westchester Chiropractic And Wellness,"550 Mamaroneck Ave #103, Harrison, Ny 10528, United States",Harrison,+1 914-346-5200,http://westchiro.net/
Chiro Care Of White Plains,"99 Court St Suite 2e, White Plains, Ny 10601, United States",White Plains,+1 914-357-1779,http://www.chirocarewhiteplains.com/
The Homestead Family Chiropractic,"266 White Plains Rd Ste C1, Eastchester, Ny 10709, United States",Eastchester,+1 203-244-8544,https://www.thehomesteadchiropractic.com/
"Sirota Chiropractic Offices, White Plains","600 N Broadway, White Plains, Ny 10603, United States",White Plains,+1 917-763-4141,https://drsirota.com/
Westchester Spinal Decompression Center,"4 Westchester Park Dr #230, White Plains, Ny 10604, United States",White Plains,+1 914-368-7667,http://www.backpainwestchester.com/
Elmsford Chiropractic,"64 S Central Ave, Elmsford, Ny 10523, United States",Elmsford,+1 914-345-6700,https://www.elmsfordchiropractic.com//?utm_source=google&utm_medium=organic&utm_campaign=gmb
Upper Cervical Chiropractic Of New York,"311 North St #410, White Plains, Ny 10605, United States",White Plains,+1 914-686-6200,https://ucc-ny.com/?utm_source=google&utm_medium=organic&utm_campaign=gbp
Zimbardo Chiropractic Office,"274 White Plains Rd # 3, Eastchester, Ny 10709, United States",Eastchester,+1 914-337-3737,https://www.eastchesterchiropracticcare.com/
Spinous Chiropractic And Spinal Decompression,"175 Memorial Hwy, New Rochelle, Ny 10801, United States",New Rochelle,+1 914-636-2660,http://www.spinous.com/
New Rochelle Chiropractic Office,"5 North Ave, New Rochelle, Ny 10805, United States",New Rochelle,+1 914-636-4113,http://newrochellechiropractic.com/
Wellnest Chiropractic And Holistic Center (dr. Ivana Vargas),"145 Palisade St #412b, Dobbs Ferry, Ny 10522, United States",Dobbs Ferry,+1 914-297-7999,http://www.hudsonchiropracticandwellness.com/
Proclinix Sports Physical Therapy & Chiropractic - Tarrytown Ny,"In Shames Jcc On The Hudson, 371 S Broadway, Tarrytown, Ny 10591, United States",Tarrytown,+1 914-342-7880,https://proclinix.com/blog/location/proclinix-sports-physical-therapy-chiropractic-tarrytown-ny/
Chiropractic Health Center,"195 Wilmot Rd, New Rochelle, Ny 10804, United States",New Rochelle,+1 914-636-5533,https://www.ryechiro.com/
"Vinh Tran, Dc, Ccsp","4 Westchester Park Dr #230, White Plains, Ny 10604, United States",White Plains,+1 914-368-7668,https://www.opcnyc.com/
"Hudson Rivertowns Chiropractic: Philip Striano, D.c.","88 Ashford Ave # 1, Dobbs Ferry, Ny 10522, United States",Dobbs Ferry,+1 914-693-1408,https://rivertownschiro.com/
North White Plains Chiropractic,"811 N Broadway #205, White Plains, Ny 10603, United States",White Plains,+1 914-997-2515,http://www.nwpcforbetterhealth.com/
Sound Sports & Family Chiropractic,"1600 Harrison Ave #104, Mamaroneck, Ny 10543, United States",Mamaroneck,+1 914-698-9283,http://www.mamaroneckchiropractic.com/
"Dr. Evan L. Delman, Dc","1301 Mamaroneck Ave, White Plains, Ny 10605, United States",White Plains,+1 914-761-4520,https://shorturl.at/hrsuI
Harrison Chiropractic,"550 Mamaroneck Ave # 307, Harrison, Ny 10528, United States",Harrison,+1 914-601-2225,https://harrisonchirony.com/
Tarrytown Chiropractic,"102 S Broadway, Tarrytown, Ny 10591, United States",Tarrytown,+1 914-631-4900,https://tarrytownchiropractic.com/?utm_source=NEXT&utm_medium=GMB_website
Chiropractic Rehabilitation Source,"656 Yonkers Ave, Yonkers, Ny 10704, United States",Yonkers,+1 914-584-6864,https://chirorehabsource.com/
"White Plains Chiropractic Wellness, Pllc","222 Mamaroneck Ave, White Plains, Ny 10605, United States",White Plains,+1 914-761-1121,https://www.drsutera.com/
Sofos Chiropractic,"235 Mamaroneck Ave #105, White Plains, Ny 10605, United States",White Plains,+1 914-686-8844,https://www.drsofos.com/
Spine Care,"83 Montgomery Ave, Scarsdale, Ny 10583, United States",Scarsdale,+1 914-961-7575,https://www.spinecare83.com/
Repair Recover Restore,"95 Church St Ste 200, White Plains, Ny 10601, United States",White Plains,+1 914-506-5777,https://www.r3health.org/
"Carol A. Donohue, D.c.","450 Mamaroneck Ave #409, Harrison, Ny 10528, United States",Harrison,+1 914-777-4008,http://thec3chiro.com/
Thrive Holistic Wellness,"95 Church St # B, White Plains, Ny 10601, United States",White Plains,+1 914-684-1800,http://www.thrive-healthcenter.com/
Sayegh Family Chiropractic: Office Of Dr. Peter Sayegh,"970 N Broadway Ste 309, Yonkers, Ny 10701, United States",Yonkers,+1 914-709-0199,https://www.mycreatingwellness.com/
Enhance Your Stance Chiropractic,"2124 Boston Post Rd, Larchmont, Ny 10538, United States",Larchmont,+1 914-440-0082,https://www.enhanceyourstancechiropractic.com/
"Jonathan Donath, Dc, Ms","4 Westchester Park Dr #230, White Plains, Ny 10604, United States",White Plains,+1 914-368-7668,https://www.jointeffortchiro.com/
Proclinix Sports Physical Therapy & Chiropractic - Armonk,"5 N Greenwich Rd, Armonk, Ny 10504, United States",Armonk,+1 914-690-7629,https://proclinix.com/blog/location/proclinix-sports-physical-therapy-chiropractic-armonk-ny/
Optimal Health Chiropractic,"450 Mamaroneck Ave #409, Harrison, Ny 10528, United States",Harrison,+1 914-777-3200,http://www.optimalhealthny.com/
Westchester Chiropractic & Spinal Decompression Center,"99 Court St 2nd Floor, White Plains, Ny 10601, United States",White Plains,+1 844-994-3443,https://whiteplains-chiropractor.com/
Hudson Valley Chiropractic,"475 Tuckahoe Rd #201, Yonkers, Ny 10710, United States",Yonkers,+1 914-793-1824,https://www.hudvchiro.com/
"Stephen Handler, Dc - Chiropractor","95 Church St Ste 200, White Plains, Ny 10601, United States",White Plains,+1 914-506-5777,https://www.r3health.org/
Dr. Stephen M. Perlman,"2 N Broadway # T0, White Plains, Ny 10601, United States",White Plains,+1 914-993-9125,http://www.whiteplainsbackpain.com/
Ossining Chiropractic Office,"71 Croton Ave, Ossining, Ny 10562, United States",Ossining,+1 914-941-1141,https://www.ossiningchiro.com/
Scarsdale Chiropractic Assocs,"800 Central Park Ave, Scarsdale, Ny 10583, United States",Scarsdale,+1 914-725-4900,http://www.scarsdalechiropractic.com/
North Castle Chiropractic,"2 Byram Brook Pl, Armonk, Ny 10504, United States",Armonk,+1 914-273-6777,https://www.armonkchiropractor.com/
Seth M Wolin Dc,"North Castle Chiropractic, 2 Byram Brook Pl Upper Level, Armonk, Ny 10504, United States",Armonk,+1 914-273-6777,http://armonkchiropractor.com/
Main Chiropractic Rehabilitation Pllc,"634 Main St, New Rochelle, Ny 10801, United States",New Rochelle,+1 914-654-1100,https://www.mainchiropracticonline.com/
Dr. Christopher Straface At Westchester Family Chiropractic,"550 Mamaroneck Ave #103, Harrison, Ny 10528, United States",Harrison,+1 914-346-5200,http://westchiro.net/
Chiropractic Center Of Pelham,"111 Wolfs Ln, Pelham, Ny 10803, United States",Pelham,+1 914-738-6201,https://www.pelhamchiro.com/
"Eglauf Wellness Center - Patrick J. Eglauf, Dc","30 Greenridge Ave, White Plains, Ny 10605, United States",White Plains,+1 914-761-1886,http://www.eglaufwellnesscenter.com/
Holistic Health Care- Advanced Chiropractic Techniques And Nutrition Response Testing,"440 White Plains Rd, Eastchester, Ny 10709, United States",Eastchester,+1 914-202-8633,http://www.drcastaldiholistichealthcare.com/
Complete Care Chiropractic,"77 Tarrytown Rd # 1, White Plains, Ny 10607, United States",White Plains,+1 914-421-1059,https://www.completecareny.com/
Dr. Kenneth M. Trotta Chiropractor,"495 Central Park Ave Suite 205, Scarsdale, Ny 10583, United States",Scarsdale,+1 914-686-8899,https://scarsdalechiropracticcare.com/
"Alexi Kantor, Dc","95 Church St Ste 200, White Plains, Ny 10601, United States",White Plains,+1 914-506-5777,https://www.r3health.org/
Harvey Family Chiropractic Office,"984 N Broadway, Yonkers, Ny 10701, United States",Yonkers,+1 914-476-8600,http://www.harveyfamilychiropractic.com/
Robert Monk,"71 Croton Ave, Ossining, Ny 10562, United States",Ossining,+1 914-945-0300,http://www.drmonk.com/
"James S. Striano, Dc","475 Tuckahoe Rd #201, Yonkers, Ny 10710, United States",Yonkers,+1 914-793-1824,http://www.hudvchiro.com/
"Richard Davidson, Dc","550 Mamaroneck Ave #103, Harrison, Ny 10528, United States",Harrison,+1 914-346-5200,http://westchiro.net/
Andersen Chiropractic,"430 Bedford Rd Suite 203, Armonk, Ny 10504, United States",Armonk,+1 212-777-1318,https://www.omniwellnessnyc.com/chiropractic
Active Chiropractic Of Rye,"31 Purchase St Suite 2-2, Rye, Ny 10580, United States",Rye,+1 914-409-8385,http://www.ryeactivechiropractic.com/
Rye Chiropractic Center,"16 School St, Rye, Ny 10580, United States",Rye,+1 914-921-3331,https://www.ryechiropractor.com/
"Anthony Sayegh, Dc","95 Church St, White Plains, Ny 10601, United States",White Plains,+1 914-684-1800,http://www.thrive-healthcenter.com/
Tany Sutera,"222 Mamaroneck Ave #100, White Plains, Ny 106051304, United States",White Plains,+1 914-761-1121,https://www.drsutera.com/about-us/meet-the-doctor.html
Millennium Medical & Rehab Physical Therapy In Scarsdale Ny,"Apple Bank Plaza, 1075 Central Park Ave Suite 107 Suite 107, Scarsdale, Ny 10583, United States",Scarsdale,+1 914-472-2700,https://www.mmrclinic.com/
Kwan Acupuncture Pllc,"570 Taxter Rd Ste 640, Elmsford, Ny 10523, United States",Elmsford,+1 914-222-1560,http://www.kwanacupuncture.com/
Signature Acupuncture Studio Pllc,"75 S Broadway 4th Floor, White Plains, Ny 10601, United States",White Plains,+1 914-222-5644,https://www.signatureacupuncture.com/
Scarsdale Health & Wellness,"778 White Plains Rd, Scarsdale, Ny 10583, United States",Scarsdale,+1 914-723-5105,https://www.scarsdalehealth.com/
"Eastern Light Acupuncture - White Plains, Westchester, Ny","280 Dobbs Ferry Rd # 204, White Plains, Ny 10607, United States",White Plains,+1 914-686-2353,http://www.eastmedny.com/
White Plains Acupuncture Pllc,"280 Mamaroneck Ave # 204, White Plains, Ny 10605, United States",White Plains,+1 914-354-0333,http://www.whiteplainsacupuncture.com/
Life Spring Acupuncture Clinic,"2054 Central Park Ave, Yonkers, Ny 10710, United States",Yonkers,+1 201-290-2072,https://facebook.com/LifeSpringAcu
"Eastway Acupuncture: Easter Yi Acupuncture, Pllc","495 Central Park Ave Suite 205, Scarsdale, Ny 10583, United States",Scarsdale,+1 914-573-1069,http://www.eastwayacupuncture.com/
Mamaroneck Acupuncture In Larchmont,"2179 Boston Post Rd, Larchmont, Ny 10538, United States",Larchmont,+1 914-777-1168,https://larchmontwellness.com/booking/
Acupuncture New Rochelle,"421 Huguenot St Suite 31, New Rochelle, Ny 10801, United States",New Rochelle,+1 914-338-8002,https://www.acupuncturenewrochelle.com/
Chakra Acupuncture Wellness & Beyond,"475 White Plains Rd # 22, Eastchester, Ny 10709, United States",Eastchester,+1 914-786-1413,https://www.chakra-acu.com/
Yael Acuwellness,"1600 Harrison Ave Suite 203, Mamaroneck, Ny 10543, United States",Mamaroneck,+1 914-575-6285,http://www.yaelacuwellness.com/
Laura Hoffman Acupuncture,"42b Main St, Dobbs Ferry, Ny 10522, United States",Dobbs Ferry,+1 917-859-8761,http://laurahoffmanacu.com/
"The Family Healing Spot Llc: Acupuncture, Herbs, Qi Gong, And Sauna!","1010 Park St Suite 2w-3, 2nd Floor, Peekskill, Ny 10566, United States",Peekskill,+1 917-456-6385,http://healingspot.org/
Eastern Wellness Acupuncture,"83 Montgomery Ave, Scarsdale, Ny 10583, United States",Scarsdale,+1 914-472-6688,http://www.easternwellnessacupuncture.com/
Westchester Sports & Wellness,"450 Mamaroneck Ave #409, Harrison, Ny 10528, United States",Harrison,+1 914-771-9355,https://westchestersportsandwellness.com/
Christina Wallace Acupuncture Pllc,"55 S Broadway 2nd Floor, Tarrytown, Ny 10591, United States",Tarrytown,+1 914-246-0148,http://www.cwacupuncture.com/
Scarsdale Acupuncture,"531 Central Park Ave #304, Scarsdale, Ny 10583, United States",Scarsdale,+1 914-472-2600,http://www.scarsdaleacupuncture.com/
"Kathryn Duffy Acupuncture, P.c.","987 Main St 2nd Floor, Peekskill, Ny 10566, United States",Peekskill,+1 718-414-0627,https://kathrynduffyacupuncture.com/
Jaesun Yoo Acupuncture,"450 Mamaroneck Ave Suite 414, Harrison, Ny 10528, United States",Harrison,+1 914-421-1001,http://yoohealing.com/
World Acupuncture,"5 N Greenwich Rd Suite 100, Armonk, Ny 10504, United States",Armonk,+1 914-354-3920,https://worldacu.com/
Touchstone Acupuncture,"1600 Harrison Ave Suite 203, Mamaroneck, Ny 10543, United States",Mamaroneck,+1 914-364-8897,http://www.touchstoneacupuncture.com/
Sojourn Acupuncture Wellness Center,"475 White Plains Rd 2nd Floor - Suite 22, Eastchester, Ny 10709, United States",Eastchester,+1 845-490-4466,http://www.sojournacupuncture.com/
"Integrative Med Solutions, Dr. Fred Lisanti","266 White Plains Rd Suite B, Eastchester, Ny 10709, United States",Eastchester,+1 914-337-2980,https://www.intmedsolutions.com/
Ira Wahrman L.ac,"107 Travers Ave, Mamaroneck, Ny 10543, United States",Mamaroneck,+1 914-772-4044,https://acupunctureinwestchester.com/
Complete Human Acupuncture Pllc,"29 Williamsburg Close, Scarsdale, Ny 10583, United States",Scarsdale,+1 914-745-9800,https://www.completehumanacu.com/
Bronxville Acupuncture,"141 Parkway Rd Suite 27, Bronxville, Ny 10708, United States",Bronxville,+1 914-222-9299,https://bronxvilleacupuncture.com/
Beati Acupuncture Wellness Clinic - Scarsdale,"455 Central Park Ave # 208, Scarsdale, Ny 10583, United States",Scarsdale,+1 914-713-8732,http://beatiacupuncture.com/
Jean Shen Acupuncture,"154 E Boston Post Rd, Mamaroneck, Ny 10543, United States",Mamaroneck,+1 914-835-2241,https://www.healthprofs.com/us/acupuncturists/weizheng-shen-mamaroneck-ny/535481
Hc Acupuncture,"77 Tarrytown Rd, White Plains, Ny 10607, United States",White Plains,+1 914-949-1028,http://www.hcacupuncture.com/
New York Acupuncture,"586 Warburton Ave, Hastings-on-hudson, Ny 10706, United States",Hastings-on-hudson,+1 914-478-1160,http://www.nyacupuncture-healthcare.com/westchester-office
Sino-american Acupuncture Pllc,"18 Church St, White Plains, Ny 10601, United States",White Plains,+1 914-202-9268,https://www.sinoamericanacupuncture.com/
"Wei Yuan Md, Lac","37 King St, Chappaqua, Ny 10514, United States",Chappaqua,+1 914-861-9161,https://fctfamilyacupuncture.com/
"Joseph C. Khoury, Lac","244 Westchester Ave, White Plains, Ny 10604, United States",White Plains,+1 914-948-7400,http://spineoptions.com/
Hc Acupuncture,"311 North St Suite 302, White Plains, Ny 10605, United States",White Plains,+1 914-219-1010,https://hcacupuncture.com/
Yonkers Acupuncture,"1550 Central Park Ave Suite B, Yonkers, Ny 10710, United States",Yonkers,+1 914-202-9268,https://sinoamericanacupuncture.com/
Larchmont Wellness,"2179 Boston Post Rd, Larchmont, Ny 10538, United States",Larchmont,+1 914-777-1168,https://www.larchmontwellness.com/
"Center For Integrative Health & Acupuncture, Pc","933 Mamaroneck Ave Ste 202, Mamaroneck, Ny 10543, United States",Mamaroneck,+1 914-257-3754,http://www.integrativehealthacup.com/
Well Collab Acupuncture Ossining,"145 Palisade St #412b, Dobbs Ferry, Ny 10522, United States",Dobbs Ferry,+1 914-418-5679,https://wellcollab.com/
"Tarrytown Functional Medicine: Jill Fetell, M.d.","15 Neperan Rd #13, Tarrytown, Ny 10591, United States",Tarrytown,+1 914-631-7911,https://tfmhealth.com/
Fine Point Acupuncture,"157 Mamaroneck Ave, Mamaroneck, Ny 10543, United States",Mamaroneck,,https://www.finepointacu.com/
"Westchester Neurological Consultants: Dr. Emad Soliman, Md","1915 Central Park Ave, Yonkers, Ny 10710, United States",Yonkers,+1 914-966-0505,https://www.westchester-neurology.com/
"Sarah Elizabeth Vollbracht, Md","685 White Plains Rd, Eastchester, Ny 10709, United States",Eastchester,+1 914-787-4100,https://doctors.nyp.org/sarah-elizabeth-vollbracht-md/newyork-presbyterian-medical-group-westchester-primary-care-&-specialty-care?utm_source=yextgmb&utm_medium=organic&utm_campaign=yext_doctor_listings&y_source=1_MTQ4NzM3NjUtNzE1LWxvY2F0aW9uLndlYnNpdGU%3D
"Beth Rapaport, Md","600 Mamaroneck Ave #200, Harrison, Ny 10528, United States",Harrison,+1 914-723-8100,https://www.wphphysicianassociates.org/provider-directory/providers/beth-rapaport-md/
Columbiadoctors - Neurology,"155 White Plains Rd, Tarrytown, Ny 10591, United States",Tarrytown,+1 646-426-3880,http://www.columbianeurology.org/?utm_source=Ggl&utm_medium=GMB-link&utm_campaign=CD
"Amy Hua, Do","1296 North Ave 2nd Floor, New Rochelle, Ny 10804, United States",New Rochelle,+1 914-235-8224,https://www.wphphysicianassociates.org/provider-directory/providers/amy-hua-do/
"Chester Neurology, Pllc Yonkers, New York","984 N Broadway Suite#305, Yonkers, Ny 10701, United States",Yonkers,+1 914-816-1941,http://chesterneurology.com/
"Ute Traugott, Md","99 Business Park Dr, Armonk, Ny 10504, United States",Armonk,+1 914-849-7900,https://www.wphphysicianassociates.org/provider-directory/providers/ute-traugott-md/
"Anila Thomas, Md","170 Maple Ave Floor 5, White Plains, Ny 10601, United States",White Plains,+1 914-220-0283,https://www.wphphysicianassociates.org/provider-directory/providers/anila-thomas-md/
"Ivo Bach, Md","122 Maple Ave Floor 8, White Plains, Ny 10601, United States",White Plains,+1 914-849-5300,https://www.wphphysicianassociates.org/provider-directory/providers/ivo-bach-md/
Burke Neurological Institute,"785 Mamaroneck Ave, White Plains, Ny 10605, United States",White Plains,+1 914-597-2551,https://burke.weill.cornell.edu/
"Hiral G. Shah, Md","155 White Plains Rd, Tarrytown, Ny 10591, United States",Tarrytown,+1 646-426-3876,https://doctors.columbia.edu/us/ny/tarrytown/hiral-g-shah-md-155-white-plains-road?utm_source=yextgmb&utm_medium=organic&utm_campaign=yext_doctor_listings&y_source=1_MTA5NTk0MDI5MC03MTUtbG9jYXRpb24ud2Vic2l0ZQ%3D%3D
Columbiadoctors - Child Neurology - Scarsdale,"688 White Plains Rd # 210, Scarsdale, Ny 10583, United States",Scarsdale,+1 646-426-3879,http://www.columbianeurology.org/?utm_source=Ggl&utm_medium=GMB-link&utm_campaign=CD
"Regional Neurological Associates, Pc","970 N Broadway Ste 201, Yonkers, Ny 10701, United States",Yonkers,+1 914-410-3633,http://regionalneurological.com/
"Avtar Singh, Md","600 Mamaroneck Ave, Harrison, Ny 10528, United States",Harrison,+1 914-723-8100,http://www.scarsdalemedical.com/
"Mary Christine Spiciarich, Md","688 White Plains Rd, Scarsdale, Ny 10583, United States",Scarsdale,+1 914-750-4680,https://doctors.columbia.edu/us/ny/scarsdale/mary-christine-spiciarich-md-688-white-plains-road?utm_source=yextgmb&utm_medium=organic&utm_campaign=yext_doctor_listings&y_source=1_MTI1NzMzODItNzE1LWxvY2F0aW9uLndlYnNpdGU%3D
Seizure Diagnostic Center,"41 E Post Rd, White Plains, Ny 10601, United States",White Plains,+1 914-681-0600,http://www.wphospital.org/services-specialties/epilepsy-and-seizure-treatment-center
"Jessica Zwerling, Md","555 Taxter Rd, Elmsford, Ny 10523, United States",Elmsford,+1 914-457-4130,https://montefioreeinstein.org/profiles/1053496364/jessica-l-zwerling
Wphpa Neurosurgery & Neuro-endovascular Surgery,"122 Maple Ave Floor 8, White Plains, Ny 10601, United States",White Plains,+1 914-849-7593,https://www.wphphysicianassociates.org/locations/wphpa-neurosurgery-neuro-endovascular-surgery/
"Victor Ferastraoaru, Md, Md","555 Taxter Rd, Elmsford, Ny 10523, United States",Elmsford,+1 914-457-4130,https://montefioreeinstein.org/profiles/1851689798/victor-ferastraoaru
"Daniel Labovitz, Md","555 Taxter Rd, Elmsford, Ny 10523, United States",Elmsford,+1 914-457-4130,https://montefioreeinstein.org/profiles/1053398560/daniel-l-labovitz
"Jonathan Gursky, Md","555 Taxter Rd, Elmsford, Ny 10523, United States",Elmsford,+1 914-457-4130,https://montefioreeinstein.org/profiles/1275950487/jonathan-m-gursky
Pediatric Neurology At Mount Sinai Doctors Westchester,"341 Central Park Ave, Scarsdale, Ny 10583, United States",Scarsdale,+1 212-844-6059,https://profiles.mountsinai.org/hillary-raynes
"Charles Esenwa, Md","555 Taxter Rd, Elmsford, Ny 10523, United States",Elmsford,+1 914-457-4130,https://montefioreeinstein.org/profiles/1245556901/charles-c-esenwa
"Raminder Parihar,md","555 Taxter Rd, Elmsford, Ny 10523, United States",Elmsford,+1 914-457-4130,https://montefioreeinstein.org/profiles/1952689168/raminder-k-parihar
"Kathryn Kirchoff-torres, Md","555 Taxter Rd, Elmsford, Ny 10523, United States",Elmsford,+1 914-457-4130,https://montefioreeinstein.org/profiles/1326201245/kathryn-f-kirchoff-torres
"Neil A Shneider, Md, Phd","155 White Plains Rd, Tarrytown, Ny 10591, United States",Tarrytown,+1 646-426-3876,https://doctors.columbia.edu/us/ny/tarrytown/neil-a-shneider-md-phd-155-white-plains-road?utm_source=yextgmb&utm_medium=organic&utm_campaign=yext_doctor_listings&y_source=1_MTIzMjUzMTctNzE1LWxvY2F0aW9uLndlYnNpdGU%3D
"Rachael Jayne Benson, Md","155 White Plains Rd, Tarrytown, Ny 10591, United States",Tarrytown,+1 646-426-3876,https://doctors.columbia.edu/us/ny/tarrytown/rachael-jayne-benson-md-155-white-plains-road?utm_source=yextgmb&utm_medium=organic&utm_campaign=yext_doctor_listings&y_source=1_MTg4MjQyNzEtNzE1LWxvY2F0aW9uLndlYnNpdGU%3D
Stamford Spine,"1177 Summer St 2nd Floor, Stamford, Ct 06905, United States",Stamford,+1 203-580-3232,http://www.stamfordspine.com/
Hodes Chiropractic Llc,"1249 W Main St #7, Waterbury, Ct 06708, United States",Waterbury,+1 203-754-2300,https://healthandwellness.net/
Imed Chiropractic,"527 Tunxis Hill Rd, Fairfield, Ct 06825, United States",Fairfield,+1 203-333-7788,https://www.imedchiro.com/
Forest City Chiropractic And Acupuncture,"113 Saybrook Rd, Middletown, Ct 06457, United States",Middletown,+1 860-788-3399,https://www.forestcitychiropractic.com/
Indian Harbor Chiropractic,"49 Lake Ave Suite 1e, Greenwich, Ct 06830, United States",Greenwich,+1 203-983-5426,https://www.indianharborchiropractic.com/
"Greenwich Kinetics Chiropractic Services, Dr. Vincent Buonanno","Greenwich Medical Building - The Annex, 49 Lake Ave Suite 1e, Greenwich, Ct 06830, United States",Greenwich,+1 203-661-6699,https://www.greenwichkinetics.com/
North Colony Chiropractic,"128 Broad St, Meriden, Ct 06450, United States",Meriden,+1 203-235-2225,http://drpepin.com/
Essential Health Chiropractic & Massage,"645 Farmington Ave, Hartford, Ct 06105, United States",Hartford,+1 860-269-3228 ext. 1,http://www.essentialhealthct.com/
Dr. Hugues Valcourt Dc,"281 N Main St, Bristol, Ct 06010, United States",Bristol,+1 860-582-6111,https://sovitachiro.com/
Dr James Allen Family Chiropractic,"16 Red Bush Ln, Milford, Ct 06461, United States",Milford,+1 203-877-5626,http://www.drjrallen.com/
Popowich Chiropractic & Acupuncture Care,"71 S Main St Ste 2, Newtown, Ct 06470, United States",Newtown,+1 203-304-9037,http://www.mynewtowndoctor.com/
Indigo Wellness Group,"66 Glenbrook Rd #300, Stamford, Ct 06902, United States",Stamford,+1 203-658-7850,http://www.indigowellnessgroup.com/
Donna Bunte Whole Health,"2001 W Main St, Stamford, Ct 06902, United States",Stamford,+1 203-253-9885,https://www.donnabunte.com/
"Alison Larocca, L.ac","4 Armstrong Rd, Shelton, Ct 06484, United States",Shelton,+1 203-842-8631,https://www.sheltonsportsandspine.com/about.html
Body Mind Wellness Acupuncture Pc,"2440 High Ridge Rd, Stamford, Ct 06903, United States",Stamford,+1 646-769-0478,https://bmwacupuncture.com/
Integrity Acupuncture & Dr. Aimee Montanaro,"64 Huntington St, Shelton, Ct 06484, United States",Shelton,+1 203-429-4406,https://www.integrityacuct.com/
"Mark Gutkin Lac Acupuncture, Herbs, Nutrition","111 High Ridge Rd 2nd Level, Stamford, Ct 06905, United States",Stamford,+1 203-533-9463,http://www.markgutkin.com/
"Amy Calandruccio, Lac","540 Saybrook Rd #280, Middletown, Ct 06457, United States",Middletown,+1 860-919-7821,https://middlesexhealth.org/news/middlesex-health-news/february-2024/the-benefits-of-acupuncture
"Veeresh Kumar Nanjangud Shivamurthy, Md","1000 Asylum Ave # 2112, Hartford, Ct 06105, United States",Hartford,+1 860-522-3711,https://www.trinityhealthofne.org/provider/veeresh-kumar-nanjangud-shivamurthy-md-neurology
Dr. Peter Mcallister. Westport Ct,"30 Buxton Farm Rd, Stamford, Ct 06905, United States",Stamford,+1 203-914-1900,http://www.neinh.com/
The Ayer Neuroscience Institute Headache Center,"280 S Main St #103, Cheshire, Ct 06410, United States",Cheshire,+1 860-696-2925,https://hartfordhealthcare.org/services/headache-center/locations
"Lucas Benchaya, Md","85 Seymour St #815, Hartford, Ct 06106, United States",Hartford,+1 860-972-3621,https://hartfordhealthcaremedicalgroup.org/LucasBenchaya
"Lisa Knopf, Md","85 Seymour St #815, Hartford, Ct 06106, United States",Hartford,+1 860-972-3600,https://hartfordhealthcaremedicalgroup.org/LisaKnopf
Nuvance Health Medical Practice - Neurology Norwalk,"761 Main Ave Entrance B, Suite 201a, Norwalk, Ct 06851, United States",Norwalk,+1 203-853-5000,https://www.nuvancehealth.org/locations/nuvance-health-medical-practice-neurology-norwalk?utm_source=listings&utm_medium=organic&utm_campaign=Yext&y_source=1_MjQzMTkyMzItNzE1LWxvY2F0aW9uLndlYnNpdGU%3D
The Ayer Neuroscience Institute At Hartford Hospital,"85 Seymour St Ste 1019, Hartford, Ct 06106, United States",Hartford,+1 860-278-0070,https://hartfordhealthcaremedicalgroup.org/locations/specialty-care/hartford/85-seymour-street-suite-1019
Stamford Health Medical Group Neurology,"29 Hospital Plaza Suite 602, Stamford, Ct 06902, United States",Stamford,+1 203-276-4464,https://www.stamfordhealth.org/locations/ct/stamford/stamford-health-medical-group-neurology/11140983/?utm_source=google&utm_medium=organic&utm_campaign=Yext
Stamford Hospital: New England Institute For Neurology And Headache,"166 W Broad St #203, Stamford, Ct 06902, United States",Stamford,+1 203-276-4464,http://www.stamfordhealthintegratedpractices.com/
Sarah E. Buckingham,"29 Hospital Plaza Suite 602, Stamford, Ct 06902, United States",Stamford,+1 203-276-4464,https://www.stamfordhealth.org/find-a-doctor/sarah-buckingham?utm_source=google&utm_medium=organic&utm_campaign=Yext
Lawrence Beck,"111 Beach Rd, Fairfield, Ct 06824, United States",Fairfield,+1 203-254-0284,https://neurologyct.com/
Dr. Yaniv Chen,"99 Hawley Ln Ste 1120, Stratford, Ct 06614, United States",Stratford,+1 203-377-5988,https://neurologyct.com/
Bluth Lawrence S Md,"85 Seymour St #800, Hartford, Ct 06106, United States",Hartford,+1 860-522-4429,https://weence.com/medical/doctors/hartford-4/bluth-lawrence-s-md/
Yale Medicine Neurology,"260 Long Ridge Rd, Stamford, Ct 06902, United States",Stamford,+1 877-925-3637,https://www.yalemedicine.org/departments/neurology
Neurosynchrony Health,"100 Melrose Ave # 101, Greenwich, Ct 06830, United States",Greenwich,+1 203-717-0797,https://www.neurosynchronyhealth.com/
Hartford Hospital Epilepsy Center,"80 Seymour St, Hartford, Ct 06106, United States",Hartford,+1 860-972-2700,https://hartfordhospital.org/services/neuroscience-institute/conditions-treatments/epilepsy
"Dr. Azimuddin K. Kazi, Md","99 Hawley Ln, Stratford, Ct 06614, United States",Stratford,+1 203-377-5988,http://www.neurologyct.com/
"Dr. Lisa B. Webb, Md","99 Hawley Ln Ste 1120, Stratford, Ct 06614, United States",Stratford,+1 203-377-5988,http://www.neurologyct.com/
"Yaniv Chen, Md","111 Beach Rd, Fairfield, Ct 06824, United States",Fairfield,+1 203-254-0284,https://neurologyct.com/
Efrat Feldman,"114 Woodland St, Hartford, Ct 06105, United States",Hartford,+1 860-522-3711,https://www.trinityhealthofne.org/provider/efrat-feldman-md-neurology
Trinity Health Of New England,"1000 Asylum Ave 5th Floor, Hartford, Ct 06105, United States",Hartford,+1 860-714-4000,https://www.trinityhealthofne.org/location/trinity-health-of-new-england
Bridgeport Hospital,"267 Grant St, Bridgeport, Ct 06610, United States",Bridgeport,+1 203-384-3000,https://www.bridgeporthospital.org/
Trinity Health Of New England Medical Group,"114 Woodland St, Hartford, Ct 06105, United States",Hartford,+1 860-714-4000,https://www.trinityhealthofne.org/location/saint-francis-hospital
"Dr. John Sayegh, Broadway Chiropractic","260 S Broadway Suite Lt, Yonkers, Ny 10705, United States",Yonkers,+1 914-968-7821,http://drjohnsayegh.com/
Dr. Jodi Jacobs Chiropractor,"909 Midland Ave, Yonkers, Ny 10704, United States",Yonkers,+1 914-476-6500,http://www.jodijacobsdc.com/
The Joint Chiropractic,"2417 Palmer Ave, New Rochelle, Ny 10801, United States",New Rochelle,+1 914-326-0685,https://www.thejoint.com/new-york/new-rochelle/new-rochelle-11032?y_source=1_MTA5NDU3NzM3My03MTUtbG9jYXRpb24ud2Vic2l0ZQ%3D%3D
"Lawrence Ruck, D.c.","South Building, 200 S Broadway Suite 2-3, Tarrytown, Ny 10591, United States",Tarrytown,+1 914-844-7712,http://www.ruckspineandsports.com/
Perlman Dean A Dc,"800 Central Park Ave # 205, Scarsdale, Ny 10583, United States",Scarsdale,+1 914-725-4900,http://www.scarsdalechiropractic.com/
Pain Relief And Holistic Health Care,"1 S Stone Ave, Elmsford, Ny 10523, United States",Elmsford,+1 914-592-1733,http://www.drcoppolaforhealth.com/
"Charles C. Coppola, Dc","1 S Stone Ave, Elmsford, Ny 10523, United States",Elmsford,+1 914-592-1733,http://drcoppolaforhealth.com/
The York Clinic,"14 Harwood Ct Suite 215, Scarsdale, Ny 10583, United States",Scarsdale,+1 917-770-9107,https://www.yorkwellnessclinic.com/
Zhang Clinic,"280 Dobbs Ferry Rd Suite 209, White Plains, Ny 10607, United States",White Plains,+1 914-259-0346,http://www.zhangclinic.net/
Serenity Acupuncture And Wellness,"172 N Highland Ave Suite 1, Ossining, Ny 10562, United States",Ossining,+1 914-299-7787,http://www.pazacu-westchester.com/
"Dr. Hashemipour Acupuncture: Clinical Phd Of Integrative Medicine, Lac","17 Rodman Oval, New Rochelle, Ny 10805, United States",New Rochelle,+1 631-507-4845,http://doctorhvisit.com/
Thrive Acupuncture & Wellness,"1 S Greeley Ave #202, Chappaqua, Ny 10514, United States",Chappaqua,+1 914-268-6458,http://www.thriveacupunctureny.com/
Ren-shen Healing,"65 S Broadway, Tarrytown, Ny 10591, United States",Tarrytown,+1 914-418-5440,http://www.renshenhealing.com/
"Dr. Anabelle Grigorescu Dac, Lac-northeast Acupuncture","2005 Palmer Ave, Larchmont, Ny 10538, United States",Larchmont,+1 914-200-4405,http://www.anabellegrigorescu.com/
Concentric Acupuncture,"875 Mamaroneck Ave Suite 303, Mamaroneck, Ny 10543, United States",Mamaroneck,+1 914-200-3343,https://www.concentricacupuncture.com/
Flowing Rivers Acupuncture P.c.,"601 Warburton Ave, Hastings-on-hudson, Ny 10706, United States",Hastings-on-hudson,+1 914-572-1559,https://www.flowingrivers.net/
Ossining Acupuncture,"100 S Highland Ave, Ossining, Ny 10562, United States",Ossining,,https://ossiningacupuncture.com/
"Toni M. King, Ms","256 King St, Port Chester, Ny 10573, United States",Port Chester,+1 914-582-3276,http://spottedtigeracupuncture.com/
Larchmont Acupuncture,"1415 Boston Post Rd, Larchmont, Ny 10538, United States",Larchmont,+1 914-320-7290,http://www.larchmontacupuncture.com/
"Jean Lopez, Md","170 Maple Ave # 309, White Plains, Ny 10601, United States",White Plains,+1 914-220-0283,https://www.wphphysicianassociates.org/provider-directory/providers/jean-lopez-md/
"Kristen E. Sahler, Md","600 Mamaroneck Ave #200, Harrison, Ny 10528, United States",Harrison,+1 914-723-8100,https://www.wphphysicianassociates.org/provider-directory/providers/kristen-sahler-md/
"Jennifer Rosen, Md","170 Maple Ave # 309, White Plains, Ny 10601, United States",White Plains,+1 914-220-0283,https://www.wphphysicianassociates.org/provider-directory/providers/jennifer-rosen-md/
"Amy Hua, Do","99 Business Park Dr, Armonk, Ny 10504, United States",Armonk,+1 914-849-7900,https://www.wphphysicianassociates.org/provider-directory/providers/amy-hua-do/
Neurology At Burke,"785 Mamaroneck Ave Building 4, White Plains, Ny 10605, United States",White Plains,+1 914-723-8100,https://www.wphphysicianassociates.org/locations/neurology-at-burke/
Pediatric Neurology Assoc,"125 S Broadway, White Plains, Ny 10605, United States",White Plains,,http://www.pediatricneurology.com/
"Daniel Antoniello, Md","555 Taxter Rd, Elmsford, Ny 10523, United States",Elmsford,+1 914-457-4190,https://montefioreeinstein.org/profiles/1790851467/daniel-antoniello
"Peter D Angevine, Md","155 White Plains Rd, Tarrytown, Ny 10591, United States",Tarrytown,+1 212-305-9000,https://doctors.columbia.edu/us/ny/tarrytown/peter-d-angevine-md-155-white-plains-road?utm_source=yextgmb&utm_medium=organic&utm_campaign=yext_doctor_listings&y_source=1_MTkzNzUxMDEtNzE1LWxvY2F0aW9uLndlYnNpdGU%3D
"Comana M. Cioroiu, Md","155 White Plains Rd, Tarrytown, Ny 10591, United States",Tarrytown,+1 646-426-3876,https://doctors.columbia.edu/us/ny/tarrytown/comana-m-cioroiu-md-155-white-plains-road?utm_source=yextgmb&utm_medium=organic&utm_campaign=yext_doctor_listings&y_source=1_MjEwNjY2MzQtNzE1LWxvY2F0aW9uLndlYnNpdGU%3D
"Paul Eugene Lleva, Md, Faan","785 Mamaroneck Ave Building 4, White Plains, Ny 10605, United States",White Plains,+1 914-849-5300,https://www.wphphysicianassociates.org/provider-directory/providers/paul-lleva-md-faan/
"Alison M Pack, Md, Mph","155 White Plains Rd, Tarrytown, Ny 10591, United States",Tarrytown,+1 646-426-3876,https://doctors.columbia.edu/us/ny/tarrytown/alison-m-pack-md-155-white-plains-road?utm_source=yextgmb&utm_medium=organic&utm_campaign=yext_doctor_listings&y_source=1_MTIzMzAwNjctNzE1LWxvY2F0aW9uLndlYnNpdGU%3D
"David M. Swope, Md","755 N Broadway Suite 430, Tarrytown, Ny 10591, United States",Tarrytown,+1 914-366-5300,https://www.northwell.edu/find-care/find-a-doctor/neurology/dr-david-m-swope-md-11507806?utm_source=provider_listing&utm_medium=partner&utm_campaign=doctor_dot_com
"Cheryl H. Waters, Md","155 White Plains Rd, Tarrytown, Ny 10591, United States",Tarrytown,+1 646-426-3876,https://doctors.columbia.edu/us/ny/tarrytown/cheryl-h-waters-md-155-white-plains-road?utm_source=yextgmb&utm_medium=organic&utm_campaign=yext_doctor_listings&y_source=1_MTIzMjU1MDgtNzE1LWxvY2F0aW9uLndlYnNpdGU%3D
Neuro Alert Monitoring Services,"399 Knollwood Rd, White Plains, Ny 10603, United States",White Plains,+1 973-882-3456,https://www.accurateneuromonitoring.com/
"Peter Chei-way Pan, Md","155 White Plains Rd, Tarrytown, Ny 10591, United States",Tarrytown,+1 212-342-0571,https://doctors.columbia.edu/us/ny/tarrytown/peter-chei-way-pan-md-155-white-plains-road?utm_source=yextgmb&utm_medium=organic&utm_campaign=yext_doctor_listings&y_source=1_MTg4MjQwNjItNzE1LWxvY2F0aW9uLndlYnNpdGU%3D
Chiropractic Care Centers,"900 Grand Ave # 3, New Haven, Ct 06511, United States",New Haven,+1 203-907-4667,http://www.hamdenchiropractic.com/
Applebee Family Chiropractic Center - Prenatal & Pediatric,"27 Hospital Ave, Danbury, Ct 06810, United States",Danbury,+1 203-544-2877,http://www.drapplebee.com/
C.a.r.e. Health & Wellness Center,"810 Bedford St, Stamford, Ct 06901, United States",Stamford,+1 203-295-3484,https://carehealthandwellness.com/
Reef Chiropractic Care Dr. Brian Baker,"133 Reef Rd, Fairfield, Ct 06824, United States",Fairfield,+1 203-259-4939,http://reefchirocare.com/
Chiropractic Center Of New Britain,"10 Cedar St, New Britain, Ct 06052, United States",New Britain,+1 860-225-9925,https://www.drvesci.com/
"The Healing Point, Llc.","61 Sherman St 1st Floor, Fairfield, Ct 06824, United States",Fairfield,+1 203-536-7394,http://www.healingpointacupuncture.com/
Natural Medicine And Acupuncture,"115 Main St # 4b, Monroe, Ct 06468, United States",Monroe,+1 203-220-8923,https://www.drkaznd.com/
Shelton Sports And Spine,"4 Armstrong Rd, Shelton, Ct 06484, United States",Shelton,+1 203-842-8631,http://sheltonsportsandspine.com/
Yale School Of Medicine: Neuropsychology Service,"300 George, 300 George St #901, New Haven, Ct 06511, United States",New Haven,,https://medicine.yale.edu/neurology/divisions/neuropsychology/
Connecticut Center For Integrative Medicine,"1200 High Ridge Rd Floor 2, Stamford, Ct 06905, United States",Stamford,+1 866-320-6402,https://www.ctcintegrative.com/
Healing Duo Integrative Family Medical Practice - Norwalk Office,"9 Mott Ave Ste 203, Norwalk, Ct 06850, United States",Norwalk,+1 203-693-1429,https://www.thehealingduo.com/
Clarity Integrative Medicine,"9 Cots St Ste 2d, Shelton, Ct 06484, United States",Shelton,+1 203-304-6043,http://www.clarityintegrativemedicine.com/
Integrative Energy Medicine Institute,"59 Plains Rd Suite 1c, Milford, Ct 06460, United States",Milford,+1 203-980-4103,https://integrativeenergymedicine.com/
Connecticut Center For Natural Health,"210 S Main St, Middletown, Ct 06457, United States",Middletown,+1 860-347-8600,https://www.yournaturalhealth.com/
Northeast Natural Medicine,"19 Church Hill Rd #1, Newtown, Ct 06470, United States",Newtown,+1 800-723-2962,http://www.nenaturalmedicine.com/
Fairfield Family Health,"883 Black Rock Tpke 2nd Floor, Fairfield, Ct 06825, United States",Fairfield,+1 203-254-9957,https://www.fairfieldfamilyhealth.com/
Integrative Family Medicine Of Ct,"70 Mill River St Ste Ul4, Stamford, Ct 06902, United States",Stamford,+1 203-832-6992,http://www.ifmct.com/
The Modern Doctor,"Third Floor, 493 Whitney Ave, New Haven, Ct 06511, United States",New Haven,+1 203-239-3400,https://www.themoderndr.com/
Connecticut Lifestyle Medicine,"955 S Main St B201, Middletown, Ct 06457, United States",Middletown,+1 860-788-6573,http://connecticutlifestylemedicine.com/
Center For Generative Medicine,"71 East Ave A, Norwalk, Ct 06851, United States",Norwalk,+1 203-489-0506,http://genmedcenter.com/
Whole Body Medicine,"Riverview Plaza, 501 Kings Hwy E Unit 108, Fairfield, Ct 06825, United States",Fairfield,+1 203-371-8258,http://wholebodymed.com/
"Hawthorn Holistic Health, Llc","2969 Whitney Ave #3b, Hamden, Ct 06518, United States",Hamden,+1 203-553-7392,http://www.hawthornholistichealth.com/
Dr. Ryan Attar Naturopathic Physician,"Inside Yoga For Everybody, 85 Mill Plain Rd 3rd Floor, Fairfield, Ct 06824, United States",Fairfield,+1 203-307-5291,http://www.drattar.com/
Center For Integrative Medicine And Wellness At Stamford Health Tully Health Center,"32 Strawberry Hill Ct 1st Fl, Stamford, Ct 06902, United States",Stamford,+1 203-276-4777,https://www.stamfordhealth.org/locations/ct/stamford/center-for-integrative-medicine-and-wellness-at-stamford-health-tully-health-center/11142663/?utm_source=google&utm_medium=organic&utm_campaign=Yext
"Dr. Kerri Stasiak, Nd","83 East Ave #108, Norwalk, Ct 06851, United States",Norwalk,+1 203-642-3799,https://drkerristasiak.com/
Heirloom Family Medicine,"2969 Whitney Ave Unit 1m, Hamden, Ct 06518, United States",Hamden,+1 203-535-0221,https://heirloomfamilymedicine.com/
True Health Integrative Medicine,"7365 Main St, Stratford, Ct 06614, United States",Stratford,+1 203-923-8633,http://truehealthintegrativemedicine.com/
Santé Naturopathic & Acupuncture,"83 East Ave #309, Norwalk, Ct 06851, United States",Norwalk,+1 203-354-9849,http://www.sante-living.com/
The Naturopathic Approach - Healing Within Llc,"Reservoir Corporate Centre, 4 Research Dr, Shelton, Ct 06484, United States",Shelton,+1 203-260-0078,http://thenaturopathicapproach.com/
Goodnews Naturopathic Clinic,"83 East Ave Ste 209, Norwalk, Ct 06851, United States",Norwalk,+1 203-450-6463,http://drjamieahn.com/
Corebella Health,"417 Highland Ave # 2, Waterbury, Ct 06708, United States",Waterbury,+1 203-757-9336,https://corebellahealth.com/
Natural Medical Care Clinic Llc,"1 Maplewood Dr, Danbury, Ct 06811, United States",Danbury,+1 203-792-3187,https://drlorettaosiknd.com/
Center For Natural Healing,"477 Main St Unit 4, Monroe, Ct 06468, United States",Monroe,+1 203-268-1336,http://www.ctrnaturalhealing.com/
Dr. Robert Brody Personalized Natural Medicine Llc,"11 Mile Hill Rd Front Suite, Newtown, Ct 06470, United States",Newtown,+1 203-270-0070,http://brodynd.com/
Alicia Lapolice Nd Llc,"47 Oak St # 290, Stamford, Ct 06905, United States",Stamford,+1 203-276-1756,http://www.greenwichnaturalmedicine.com/
Connecticut Integrative Medical Center,"1817 Black Rock Tpke, Fairfield, Ct 06825, United States",Fairfield,+1 203-717-1339,https://integrativemedicalcenterofconnecticut.com/
New England Naturopathic Center,"325 S Main St, Cheshire, Ct 06410, United States",Cheshire,+1 203-271-1311,http://www.nenaturalmed.com/
Muktinath Holistic Center,"731 Main St Unit 121, Monroe, Ct 06468, United States",Monroe,+1 203-518-5808,http://www.muktinathholisticcenter.com/
Dr. Shawn Carney,"19 Church Hill Rd #1, Newtown, Ct 06470, United States",Newtown,+1 800-723-2962,https://www.nenaturalmedicine.com/
Mending Roots Naturopathy,"88 Noble Ave # 102, Milford, Ct 06460, United States",Milford,+1 203-442-6297,http://www.rootsnd.com/
"Naturopathic Specialties, Llc. Dr Flo Mcpherson Nd","986 Bridgeport Ave, Milford, Ct 06460, United States",Milford,+1 203-685-5795,http://drflomcpherson.com/?utm_source=google&utm_medium=wix_google_business_profile&utm_campaign=12691555637930686610
Stamford Health Medical Group Integrative Medicine & Wellness,"1 Blachley Rd, Stamford, Ct 06902, United States",Stamford,+1 203-276-4777,https://www.stamfordhealth.org/locations/ct/stamford/stamford-health-medical-group-integrative-medicine--wellness/11142080/?utm_source=google&utm_medium=organic&utm_campaign=Yext
"Dr. Veena Dzik, Nd, Fiama","1200 High Ridge Rd Floor 2, Stamford, Ct 06905, United States",Stamford,+1 203-247-9496,http://www.doctorveena.com/
Karuna Holistic Therapies Llc,"15 Davis Rd, Oxford, Ct 06478, United States",Oxford,+1 203-364-4551,https://www.karunaholistictherapies.com/
Olympian Medicine Llc,"615 Longbrook Ave, Stratford, Ct 06614, United States",Stratford,+1 203-864-4920,http://www.olympianmedicine.com/
"Ct Orofacial Myology, Llc","315 Highland Ave #202, Cheshire, Ct 06410, United States",Cheshire,+1 203-806-5221,http://www.ctorofacialmyology.com/
Stemper Sherry L,"2270 Park Ave, Bridgeport, Ct 06604, United States",Bridgeport,+1 203-579-4261,http://www.sherrystemper.com/
Professional Physical Therapy - Norwalk Ct,"346 Main Ave, Norwalk, Ct 06851, United States",Norwalk,+1 203-587-7163,https://www.professionalpt.com/office/norwalk/
Ct Sports Physical Therapy And Wellness Powered By Evolution,"20 Glover Ave, Norwalk, Ct 06850, United States",Norwalk,+1 203-957-8100,http://www.ctsportspt.com/
Professional Physical Therapy - Stamford Ct,"1290 Summer St Suite 2000, Stamford, Ct 06905, United States",Stamford,+1 203-989-2691,https://www.professionalpt.com/office/stamford/
"Prolete Physical Therapy & Sports Medicine: Keith Steigbigel, Pt, Dpt, Cscs","247 Broad St #3a, Milford, Ct 06460, United States",Milford,+1 203-693-3754,http://www.proletept.com/?utm_source=gmb_auth
Physical Therapy & Sports Medicine Centers Southbury,"775 Main St S Unit 70, Southbury, Ct 06488, United States",Southbury,+1 203-437-6155,https://ptsmc.com/location/southbury-connecticut/?utm_source=gbp&utm_medium=organic
Physical Therapy & Sports Medicine Centers Middletown,"134 Main Street Extension #100, Middletown, Ct 06457, United States",Middletown,+1 860-740-3087,https://ptsmc.com/location/middletown-connecticut/?utm_source=gbp&utm_medium=organic
Physical Therapy & Sports Medicine Centers Newington,"64 Market Square, Newington, Ct 06111, United States",Newington,+1 860-881-2928,https://ptsmc.com/location/newington-connecticut/?utm_source=gbp&utm_medium=organic
Physical Therapy & Sports Medicine Centers Fairfield,"2373 Black Rock Tpke, Fairfield, Ct 06825, United States",Fairfield,+1 203-659-4898,https://ptsmc.com/location/fairfield-connecticut/?utm_source=gbp&utm_medium=organic
Physical Therapy & Sports Medicine Centers Shelton,"886 Bridgeport Ave, Shelton, Ct 06484, United States",Shelton,+1 203-445-6068,https://ptsmc.com/location/shelton-connecticut/?utm_source=gbp&utm_medium=organic
Carlson Procare,"425 S Broad St, Meriden, Ct 06450, United States",Meriden,+1 203-238-1334,https://carlsonprocare.com/contact-us/meriden-wallingford/
Fyzical Therapy & Balance Centers - Bristol,"72 Pine St, Bristol, Ct 06010, United States",Bristol,+1 860-585-5800,https://www.fyzical.com/bristol-ct
Regenerative Edge Physical Therapy & Wellness,"3074 Whitney Ave Building 2 Suite 211, Hamden, Ct 06518, United States",Hamden,+1 860-813-1848,http://www.redgept.com/
Pt Plus Physical Therapy,"85 Mill Plain Rd, Fairfield, Ct 06824, United States",Fairfield,+1 203-955-1795,https://www.ptplusphysicaltherapy.com/
Ivy Rehab Physical Therapy,"101 N Plains Industrial Rd Building 5 Suite 1, Wallingford, Ct 06492, United States",Wallingford,+1 203-265-0018,https://ivyrehab.com/physical-therapy-location/wallingford-ct/?utm_source=GMB&utm_medium=organic&utm_campaign=google-business
Motion Pt - Danbury Physical Therapy,"2 Riverview Dr Suite 101, Danbury, Ct 06810, United States",Danbury,+1 203-798-9702,https://motionptg.com/locations/connecticut/danbury-pt/
"Elevate Physical Therapy - Stamford, Ct","1234 Summer St #102, Stamford, Ct 06905, United States",Stamford,+1 203-653-7269,http://elevatept.net/
Physical Therapy & Sports Medicine Centers New Haven,"Prince Professional Center, 46 Prince St Ste 402b, New Haven, Ct 06519, United States",New Haven,+1 203-752-7878,https://ptsmc.com/location/new-haven-connecticut/?utm_source=gbp&utm_medium=organic
Physical Therapy & Sports Medicine Centers Danbury,"98 Mill Plain Rd Suite 3b, Danbury, Ct 06811, United States",Danbury,+1 203-616-2312,https://ptsmc.com/location/danbury-connecticut/?utm_source=gbp&utm_medium=organic
Sportsmed Physical Therapy - Bridgeport Ct,"4775 Main St, Bridgeport, Ct 06606, United States",Bridgeport,+1 475-273-1620,https://spineandsportsmed.com/location/physical-therapy-bridgeport-ct/
Stamford Physical Therapy,"1011 Hope St Suite 2f, Stamford, Ct 06907, United States",Stamford,+1 475-619-9199,http://www.stamfordpt.com/
Select Physical Therapy - Middletown,"140 Main St Unit 4b, Middletown, Ct 06457, United States",Middletown,+1 860-343-9572,https://www.selectphysicaltherapy.com/contact/find-a-location/ct/middletown/middletown/?ty=xt
Youtherapy Wellness & Physical Rehab - Milford,"318 New Haven Ave Unit A, Milford, Ct 06460, United States",Milford,+1 475-209-1606,https://youtherapywellness.com/
Ivy Rehab Hss Physical Therapy Center Of Excellence,"2335 Dixwell Ave Suite H-3, Hamden, Ct 06514, United States",Hamden,+1 203-883-0330,https://ivyrehab.com/physical-therapy-location/hamden-ct/?utm_source=GMB&utm_medium=organic&utm_campaign=google-business
Sportsmed Physical Therapy - Norwalk Ct,"499 Westport Ave B, Norwalk, Ct 06851, United States",Norwalk,+1 475-470-0400,https://spineandsportsmed.com/location/physical-therapy-norwalk-ct/
Select Physical Therapy - Stratford,"2505 Main St Bldg 2, Stratford, Ct 06615, United States",Stratford,+1 203-375-0891,https://www.selectphysicaltherapy.com/contact/find-a-location/ct/stratford/stratford/?ty=xt
Ivy Rehab Physical Therapy,"500 Chase Pkwy Floor 1, Waterbury, Ct 06708, United States",Waterbury,+1 203-754-2266,https://ivyrehab.com/physical-therapy-location/waterbury-ct/?utm_source=GMB&utm_medium=organic&utm_campaign=google-business
High Road Physical Therapy,"68 Water St, Norwalk, Ct 06854, United States",Norwalk,+1 203-354-3789,http://www.highroadpt.com/
Park City Physical Therapy,"3180 Main St Ste G2, Bridgeport, Ct 06606, United States",Bridgeport,+1 203-731-2310,http://www.parkcityphysicaltherapy.com/
Advanced Physical Therapy,"Inside Healthtrax, 842 Clark Ave, Bristol, Ct 06010, United States",Bristol,+1 860-540-4920,http://www.physicaltherapyct.com/
Amity Physical Therapy,"1 Bradley Rd #801, Woodbridge, Ct 06525, United States",Woodbridge,+1 203-389-4593,http://www.amitypt.com/
Fusion Sports Performance & Physical Therapy,"609 W Johnson Ave, Cheshire, Ct 06410, United States",Cheshire,+1 516-351-6224,https://fusionperformancect.com/
Select Physical Therapy - Bridgeport,"4675 Main St, Bridgeport, Ct 06606, United States",Bridgeport,+1 203-373-0551,https://www.selectphysicaltherapy.com/contact/find-a-location/ct/bridgeport/bridgeport/?ty=xt
Core Medical Group / Core Physical Therapy,"Core Medical Suite 204 (corephysical Therapy, 3180 Main St #202, Bridgeport, Ct 06606, United States",Bridgeport,+1 203-373-1593,http://coremedgroup.com/
Select Physical Therapy - Cheshire,"475 S Main St, Cheshire, Ct 06410, United States",Cheshire,+1 203-271-2928,https://www.selectphysicaltherapy.com/contact/find-a-location/ct/cheshire/cheshire/?ty=xt
Access Pt | Physical Therapy,"444 Westport Ave F2, Norwalk, Ct 06851, United States",Norwalk,+1 203-852-1822,https://accessphysicaltherapywellness.com/locations/norwalk-ct/
Dr. Henry Cohen,"178 Myrtle Blvd, Larchmont, Ny 10538, United States",Larchmont,+1 914-834-1606,http://www.larchmontchiro.com/
"Sheldon C. Delman, Dc","1301 Mamaroneck Ave, White Plains, Ny 10605, United States",White Plains,+1 914-761-4520,http://www.delmanchiropractic.com/
"Richard L. Finewood, Dc","71 Croton Ave, Ossining, Ny 10562, United States",Ossining,+1 914-941-1141,https://ossiningchiro.com/about-us
"Kaitlyn T. Clarke, Dc, Chiropractor","99 Business Park Dr, Armonk, Ny 10504, United States",Armonk,+1 914-202-0700,http://www.proclinix.com/
White Plains Spinal Decompression,"2 N Broadway, White Plains, Ny 10601, United States",White Plains,+1 914-993-9125,http://www.whiteplainsspinaldecompression.com/
Mountain Herb Acupuncture,"43 Locust Ave, Rye, Ny 10580, United States",Rye,+1 203-962-4531,https://www.mountainherbacupuncture.com/
Ossining Acupuncture,"100 S Highland Ave, Ossining, Ny 10562, United States",Ossining,,https://ossiningacupuncture.com/
World Acupuncture,"1385 Boston Post Rd, Larchmont, Ny 10538, United States",Larchmont,+1 914-354-3920,http://worldacu.com/
Classical Acupuncture,"140 Lockwood Ave #107, New Rochelle, Ny 10801, United States",New Rochelle,+1 914-632-1896,http://qiforhealth.com/
Millennium Medical & Rehab Physical Therapy In Mamaroneck Ny - Chiropractors / Acupuncture In Mamaroneck Ny,"535 E Boston Post Rd, Mamaroneck, Ny 10543, United States",Mamaroneck,+1 914-472-2700,https://www.mmrclinic.com/
"Maria Fareri Children's Hospital Pediatric Neurology, Chappaqua","1 S Greeley Ave Suite 303, Chappaqua, Ny 10514, United States",Chappaqua,+1 914-358-0188,https://providers.wmchealth.org/locations/maria-fareri-children-s-hospital-pediatric-neurology-chappaqua
Seebeyond Medicine - Scarsdale Integrative Medicine,"2 Overhill Rd #260, Scarsdale, Ny 10583, United States",Scarsdale,+1 914-722-9440,http://seebeyondmedicine.com/
Amari Health Functional & Integrative Medicine,"1075 Central Park Ave Suite 100, Scarsdale, Ny 10583, United States",Scarsdale,+1 914-722-3000,http://www.amarihealth.com/
Catherine's Sage,"280 Dobbs Ferry Rd Suite 103, White Plains, Ny 10607, United States",White Plains,+1 347-454-1537,https://catherinessage.square.site/s/appointments
Legend Wellness Center,"600 N Broadway, White Plains, Ny 10603, United States",White Plains,+1 914-760-6047,http://www.legendwellnesscenter.com/
Ageless Medical,"145 Palisade St, Dobbs Ferry, Ny 10522, United States",Dobbs Ferry,+1 914-231-5249,https://www.agelessmedny.org/
Energy Healing With Bernadette Bloom,"170 Birchwood Cl, Chappaqua, Ny 10514, United States",Chappaqua,+1 239-289-3744,http://theesotericbloom.com/
"Martin P. Goldman, Md & Jay A. Goldman, Lac.","838 Pelhamdale Ave # O, New Rochelle, Ny 10801, United States",New Rochelle,+1 914-837-3135,http://www.jaygoldmanacupuncture.com/
Harold C. Clark M.d.,"400 Webster Ave, New Rochelle, Ny 10801, United States",New Rochelle,+1 914-235-8385,https://www.haroldcclarkmd.com/
Luminary Healing Center ~ Holistic Healing For The Community,"141 N Broadway, White Plains, Ny 10603, United States",White Plains,+1 917-254-0421,http://www.jacquelinehyacinth.com/
Slow Medicine Living (sunraven),"501 Guard Hill Rd, Bedford, Ny 10506, United States",Bedford,+1 914-218-3113,http://slowmedicine.org/
Santhigram Wellness,"244 Westchester Ave #104, White Plains, Ny 10604, United States",White Plains,+1 212-481-9100,http://www.santhigram.us/
Vireo Health,"223 E Post Rd #221, White Plains, Ny 10601, United States",White Plains,+1 914-222-5258,https://vireohealth.com/ny/dispensaries/white-plains/?utm_source=google-gmb&utm_medium=organic&utm_campaign=whiteplains
Leafwell - Medical Marijuana Card - White Plains,"929 N Broadway, White Plains, Ny 10603, United States",White Plains,+1 332-333-5031,https://leafwell.com/medical-card/new-york?utm_source=gmbp&utm_medium=043&utm_campaign=new_york
Balance Holistic Healing Arts,"83 N Greeley Ave, Chappaqua, Ny 10514, United States",Chappaqua,+1 914-879-5300,https://balanceholisticheaingarts.com/
Westchester Sports Physical Therapy,"672 White Plains Rd, Scarsdale, Ny 10583, United States",Scarsdale,+1 914-722-2400,https://ivyrehab.com/physical-therapy-location/scarsdale-ny/?utm_source=GMB&utm_medium=organic&utm_campaign=google-business
Starpro Physical And Hand Therapy - White Plains (mamaroneck) Ny,"222 Mamaroneck Ave 2nd Floor, White Plains, Ny 10605, United States",White Plains,+1 914-984-5149,https://www.starpropt.com/office/white-plains/
Starpro Physical Therapy - Scarsdale Pt Ny,"2 Overhill Rd Suite 315, Scarsdale, Ny 10583, United States",Scarsdale,+1 914-840-5461,https://www.starpropt.com/office/scarsdale-ny-pt/
Central Physical Therapy Associates,"495 Central Park Ave # 202, Scarsdale, Ny 10583, United States",Scarsdale,+1 914-725-0180,https://centralphysicaltherapyassocia2.godaddysites.com/
"Marina D. Castellanos Pt, Pllc","774 Post Rd, Scarsdale, Ny 10583, United States",Scarsdale,+1 914-713-5078,http://marinacpt.com/
Spear Physical Therapy,"50 Hamilton St, Dobbs Ferry, Ny 10522, United States",Dobbs Ferry,+1 914-358-2910,https://spearcenter.com/locations/westchester/westchester-dobbs-ferry/
Ny Sports And Spinal Physical Therapy - Scarsdale,"838 Scarsdale Ave, Scarsdale, Ny 10583, United States",Scarsdale,+1 914-594-6425,https://nysspt.com/physical-therapy-clinic/scarsdale-ny/
Ivy Rehab Physical Therapy,"175 Memorial Hwy Suite 2-3, New Rochelle, Ny 10801, United States",New Rochelle,+1 914-235-5354,https://ivyrehab.com/physical-therapy-location/new-rochelle-ny/?utm_source=GMB&utm_medium=organic&utm_campaign=google-business
Armonk Physical Therapy And Sports Training,"357 Main St, Armonk, Ny 10504, United States",Armonk,+1 914-273-0800,https://armonkptst.com/meet-the-team/
Ivy Rehab Physical Therapy,"550 Mamaroneck Ave Ste 104, Harrison, Ny 10528, United States",Harrison,+1 914-777-3737,https://ivyrehab.com/physical-therapy-location/harrison-ny/?utm_source=GMB&utm_medium=organic&utm_campaign=google-business
Starpro Physical Therapy - White Plains (westchester) Ny,"222 Westchester Ave Suite 307, White Plains, Ny 10604, United States",White Plains,+1 914-930-4238,https://www.starpropt.com/office/white-plains-ny-westchester-ave/
"Westchester Physical And Occupational Therapy, Pllc - Sensory Jim ™ Pediatric Physical Therapy","495 Central Park Ave Ste. 206, Scarsdale, Ny 10583, United States",Scarsdale,+1 914-574-6493,http://www.westchesterpediatricpt.com/
Starpro Physical And Hand Therapy - New Rochelle Ny,"200 Petersville Rd, New Rochelle, Ny 10801, United States",New Rochelle,+1 914-650-3448,https://www.starpropt.com/office/new-rochelle/
Good Life Physical Therapy,"55 S Broadway Second Floor, Tarrytown, Ny 10591, United States",Tarrytown,+1 914-200-1475,https://good-life-pt.com/
Spear Physical Therapy,"99 Business Park Dr, Armonk, Ny 10504, United States",Armonk,+1 914-295-9240,https://spearcenter.com/locations/westchester/westchester-armonk/
Executive Park Physical Therapy Of Yonkers,"1034 N Broadway 2nd Floor, Yonkers, Ny 10701, United States",Yonkers,+1 914-509-4640,https://executiveparkpt.com/?utm_source=omg-gbp&utm_medium=webclick
Empowerment Physical Therapy,"35 E Grassy Sprain Rd Suite 301, Yonkers, Ny 10710, United States",Yonkers,+1 917-300-9846,http://www.empowermentxpt.com/
"Regen Physical Therapy, Llp","450 Mamaroneck Ave #411, Harrison, Ny 10528, United States",Harrison,+1 914-732-3160,https://regenpt.com/
Starpro Physical Therapy - Mamaroneck Ny,"1053 W Boston Post Rd, Mamaroneck, Ny 10543, United States",Mamaroneck,+1 914-365-7282,https://www.starpropt.com/office/mamaroneck/
V Strong Physical Therapy,"2 Byram Brook Pl Room 208, Armonk, Ny 10504, United States",Armonk,+1 914-415-5499,http://www.vstrongphysicaltherapy.com/
Sportscare Physical Therapy White Plains,"311 North St Ste 304, White Plains, Ny 10605, United States",White Plains,+1 914-448-4777,https://sportscare1.com/locations/ny/physical-therapy-white-plains/
Kinetic Dynamics Physical Therapy,"145 Palisade St Suite 200, Dobbs Ferry, Ny 10522, United States",Dobbs Ferry,+1 914-844-7580,http://kineticdynamicspt.com/
Motion Sports Medicine - Dobbs Ferry,"88 Ashford Ave, Dobbs Ferry, Ny 10522, United States",Dobbs Ferry,+1 845-271-7400,https://motionptg.com/locations/new-york/dobbs-ferry/
Therapycare Physical Therapy,"1254 Central Park Ave #3, Yonkers, Ny 10704, United States",Yonkers,+1 914-294-0080,https://therapycarept.com/
Jag Physical Therapy,"7-11 S Broadway, White Plains, Ny 10601, United States",White Plains,+1 914-292-0674,https://www.jagpt.com/physical-therapy-clinics/ny/white-plains/?utm_campaign=gmb-listing&utm_medium=organic&utm_source=local
Arise Physical Therapy And Wellness,"136 W Post Rd, White Plains, Ny 10606, United States",White Plains,+1 914-584-6564,https://arisephysicaltherapy.com/
Haven Physical Therapy Pllc,"235 Mamaroneck Ave #105, White Plains, Ny 10605, United States",White Plains,+1 914-686-8844,http://www.havenpt.net/?utm_source=google&utm_medium=organic&utm_campaign=gmb
"Applied Motion Pt, Pllc","294 Lincoln Ave, New Rochelle, Ny 10801, United States",New Rochelle,+1 914-500-8937,http://appliedmotionpt.com/?utm_source=google&utm_medium=wix_google_business_profile&utm_campaign=9203841004743519935
Sportscentric Physical Therapy,"145 Palisade St Suite 217, Dobbs Ferry, Ny 10522, United States",Dobbs Ferry,+1 914-222-0876,http://www.sportscentricpt.com/
Physical Therapy 4 Kids,"311 North St Suite 308, White Plains, Ny 10605, United States",White Plains,+1 914-421-9392,http://www.physicaltherapy4kids.com/?utm_source=gmb&utm_medium=organic&utm_campaign=gmb_white_plains_ny
True Way Physical Therapy Pc - White Plains,"222 Bloomingdale Rd Ste 307, White Plains, Ny 10605, United States",White Plains,+1 914-725-4111,https://truewaypt.com/
Spear Physical Therapy,"200 White Plains Rd 4th Floor, Tarrytown, Ny 10591, United States",Tarrytown,+1 914-429-0195,https://spearcenter.com/locations/westchester/westchester-tarrytown/
New York Sports Medicine Institute,"222 Westchester Ave Suite 308, White Plains, Ny 10604, United States",White Plains,+1 914-290-4370,https://nysportsmedicineinstitute.com/
Ny Sports And Spinal Physical Therapy,"1875 Palmer Ave Ste 106, Larchmont, Ny 10538, United States",Larchmont,+1 914-594-6478,https://nysspt.com/
Finish Line Physical Therapy New Rochelle,"583 North Ave, New Rochelle, Ny 10801, United States",New Rochelle,+1 914-633-3215,http://finishlinept.com/
True Way Physical Therapy Pc,"388 Westchester Ave #1n/1o, Port Chester, Ny 10573, United States",Port Chester,+1 914-481-8777,http://truewaypt.com/
Prime Physio Physical Therapy,"72 Palmer Ave # 1, Bronxville, Ny 10708, United States",Bronxville,+1 914-354-4316,https://www.prime-physio.net/
Optimum Physical Therapy,"2025 Central Park Ave, Yonkers, Ny 10710, United States",Yonkers,+1 914-395-3290,http://www.optimumpt.org/
Xperience Physical Therapy P.c.,"18 John R Albanese Pl, Eastchester, Ny 10709, United States",Eastchester,+1 914-882-0830,http://www.xperiencept.com/
Xperience Physical Therapy P.c.,"444 E Boston Post Rd Ste 101, Mamaroneck, Ny 10543, United States",Mamaroneck,+1 914-510-7005,https://accessphysicaltherapywellness.com/locations/mamaroneck-ny/
